NORAD_CAT_ID,OBJECT_NAME,OBJECT_TYPE,EPOCH,MEAN_MOTION,ECCENTRICITY,INCLINATION,RA_OF_ASC_NODE,ARG_OF_PERICENTER,MEAN_ANOMALY,BSTAR,MEAN_MOTION_DOT,MEAN_MOTION_DDOT,TLE_LINE0,TLE_LINE1,TLE_LINE2,SEMIMAJOR_AXIS,PERIOD,APOGEE,PERIGEE,DECAYED
52333.0,STARLINK-3847,PAYLOAD,2023-07-30 06:16:36,15.08840178,0.0001171,53.2165,169.2268,94.9238,265.1888,0.00012757,1.743e-05,0.0,0 STARLINK-3847,1 52333U 22045C   23211.26153434  .00001743  00000-0  12757-3 0  9996,2 52333  53.2165 169.2268 0001171  94.9238 265.1888 15.08840178 71692,6917.88,95.438,540.555,538.935,0.0
52333.0,STARLINK-3847,PAYLOAD,2023-07-31 14:04:19,15.08840673,0.0001141,53.2162,163.2797,92.7823,267.33,3.834e-05,3.22e-06,0.0,0 STARLINK-3847,1 52333U 22045C   23212.58633840  .00000322  00000-0  38340-4 0  9995,2 52333  53.2162 163.2797 0001141  92.7823 267.3300 15.08840673 71898,6917.878,95.438,540.533,538.954,0.0
52333.0,STARLINK-3847,PAYLOAD,2023-08-01 20:16:39,15.08837703,0.0001208,53.2161,157.6294,93.2319,266.8811,1.9754e-05,2.7e-07,0.0,0 STARLINK-3847,1 52333U 22045C   23213.84490100  .00000027  00000-0  19754-4 0  9995,2 52333  53.2161 157.6294 0001208  93.2319 266.8811 15.08837703 72089,6917.887,95.438,540.588,538.917,0.0
52333.0,STARLINK-3847,PAYLOAD,2023-08-02 05:48:57,15.08844468,0.0001257,53.2164,155.8442,89.5224,270.5913,4.8728e-05,4.88e-06,0.0,0 STARLINK-3847,1 52333U 22045C   23214.24233607  .00000488  00000-0  48728-4 0  9991,2 52333  53.2164 155.8442 0001257  89.5224 270.5913 15.08844468 72142,6917.867,95.437,540.601,538.862,0.0
52333.0,STARLINK-3847,PAYLOAD,2023-08-02 13:45:53,15.08838877,0.0001233,53.2161,154.3564,96.0615,264.0518,-1.137e-05,-4.69e-06,0.0,0 STARLINK-3847,1 52333U 22045C   23214.57354092 -.00000469  00000-0 -11370-4 0  9993,2 52333  53.2161 154.3564 0001233  96.0615 264.0518 15.08838877 72190,6917.884,95.438,540.602,538.896,0.0
52333.0,STARLINK-3847,PAYLOAD,2023-08-03 02:28:58,15.08847863,0.000121,53.2158,151.977,92.188,267.925,5.212e-05,5.42e-06,0.0,0 STARLINK-3847,1 52333U 22045C   23215.10345420  .00000542  00000-0  52120-4 0  9996,2 52333  53.2158 151.9770 0001210  92.1880 267.9250 15.08847863 72273,6917.856,95.437,540.558,538.884,0.0
52333.0,STARLINK-3847,PAYLOAD,2023-08-04 02:19:46,15.08835814,0.0001291,53.2162,147.5159,90.0444,270.0696,-5.8097e-06,-3.8e-06,0.0,0 STARLINK-3847,1 52333U 22045C   23216.09706598 -.00000380  00000-0 -58097-5 0  9994,2 52333  53.2162 147.5159 0001291  90.0444 270.0696 15.08835814 72421,6917.893,95.438,540.651,538.865,0.0
52333.0,STARLINK-3847,PAYLOAD,2023-08-05 02:10:33,15.08846085,0.0001325,53.2171,143.0567,106.2178,253.896,2.1344e-05,5.2e-07,0.0,0 STARLINK-3847,1 52333U 22045C   23217.09066027  .00000052  00000-0  21344-4 0  9999,2 52333  53.2171 143.0567 0001325 106.2178 253.8960 15.08846085 72578,6917.862,95.437,540.643,538.81,0.0
52333.0,STARLINK-3847,PAYLOAD,2023-08-06 03:36:42,15.08856177,0.0001282,53.2171,138.3016,104.8381,255.2753,0.00017587,2.513e-05,0.0,0 STARLINK-3847,1 52333U 22045C   23218.15048891  .00002513  00000-0  17587-3 0  9993,2 52333  53.2171 138.3016 0001282 104.8381 255.2753 15.08856177 72733,6917.831,95.437,540.583,538.809,0.0
52333.0,STARLINK-3847,PAYLOAD,2023-08-06 11:33:38,15.08834645,0.0001084,53.2167,136.8137,97.8295,262.282,-7.9757e-05,-1.557e-05,0.0,0 STARLINK-3847,1 52333U 22045C   23218.48170129 -.00001557  00000-0 -79757-4 0  9996,2 52333  53.2167 136.8137 0001084  97.8295 262.2820 15.08834645 72784,6917.897,95.438,540.512,539.012,0.0
52333.0,STARLINK-3847,PAYLOAD,2023-08-07 03:27:31,15.08826404,0.0001242,53.2164,133.8418,99.8614,260.2518,-0.00022258,-3.827e-05,0.0,0 STARLINK-3847,1 52333U 22045C   23219.14411140 -.00003827  00000-0 -22258-3 0  9996,2 52333  53.2164 133.8418 0001242  99.8614 260.2518 15.08826404 72880,6917.922,95.438,540.646,538.928,0.0
52333.0,STARLINK-3847,PAYLOAD,2023-08-08 00:07:31,15.08844406,0.0001243,53.2162,129.9764,89.9385,270.175,0.00012318,1.673e-05,0.0,0 STARLINK-3847,1 52333U 22045C   23220.00522711  .00001673  00000-0  12318-3 0  9991,2 52333  53.2162 129.9764 0001243  89.9385 270.1750 15.08844406 73010,6917.867,95.437,540.592,538.872,0.0
52333.0,STARLINK-3847,PAYLOAD,2023-08-08 03:18:17,15.08854733,0.0001192,53.2164,129.38,94.9807,265.1322,0.00027555,4.102e-05,0.0,0 STARLINK-3847,1 52333U 22045C   23220.13770268  .00004102  00000-0  27555-3 0  9996,2 52333  53.2164 129.3800 0001192  94.9807 265.1322 15.08854733 73030,6917.835,95.437,540.525,538.876,0.0
52333.0,STARLINK-3847,PAYLOAD,2023-08-08 17:36:46,15.08842711,0.0001287,53.2147,126.7057,95.496,264.6179,0.00043345,6.618e-05,0.0,0 STARLINK-3847,1 52333U 22045C   23220.73387225  .00006618  00000-0  43345-3 0  9998,2 52333  53.2147 126.7057 0001287  95.4960 264.6179 15.08842711 73124,6917.872,95.437,540.627,538.847,0.0
52333.0,STARLINK-3847,PAYLOAD,2023-08-09 11:06:00,15.08843638,0.0001192,53.2147,123.432,107.2923,252.82,0.00019682,2.846e-05,0.0,0 STARLINK-3847,1 52333U 22045C   23221.46251014  .00002846  00000-0  19682-3 0  9991,2 52333  53.2147 123.4320 0001192 107.2923 252.8200 15.08843638 73232,6917.869,95.437,540.559,538.91,0.0
52333.0,STARLINK-3847,PAYLOAD,2023-08-10 17:18:20,15.08842904,0.0001154,53.2135,117.7821,98.0165,262.0958,0.00010459,1.377e-05,0.0,0 STARLINK-3847,1 52333U 22045C   23222.72106912  .00001377  00000-0  10459-3 0  9998,2 52333  53.2135 117.7821 0001154  98.0165 262.0958 15.08842904 73423,6917.872,95.437,540.535,538.938,0.0
52333.0,STARLINK-3847,PAYLOAD,2023-08-11 17:09:07,15.08838413,0.0001234,53.2146,113.3218,86.0764,274.0369,7.8112e-05,9.55e-06,0.0,0 STARLINK-3847,1 52333U 22045C   23223.71467138  .00000955  00000-0  78112-4 0  9990,2 52333  53.2146 113.3218 0001234  86.0764 274.0369 15.08838413 73573,6917.885,95.438,540.604,538.897,0.0
52333.0,STARLINK-3847,PAYLOAD,2023-08-12 23:21:26,15.08845241,0.0001098,53.2159,107.6731,78.4249,281.6866,0.00015322,2.152e-05,0.0,0 STARLINK-3847,1 52333U 22045C   23224.97322875  .00002152  00000-0  15322-3 0  9991,2 52333  53.2159 107.6731 0001098  78.4249 281.6866 15.08845241 73768,6917.864,95.437,540.489,538.97,0.0
52333.0,STARLINK-3847,PAYLOAD,2023-08-14 00:47:38,15.08833037,0.0001168,53.2168,102.9168,85.5015,274.6111,6.1165e-05,6.86e-06,0.0,0 STARLINK-3847,1 52333U 22045C   23226.03308050  .00000686  00000-0  61165-4 0  9996,2 52333  53.2168 102.9168 0001168  85.5015 274.6111 15.08833037 73921,6917.902,95.438,540.575,538.959,0.0
52333.0,STARLINK-3847,PAYLOAD,2023-08-15 02:13:46,15.08873526,0.0001148,53.2162,98.1577,95.2186,264.8937,-0.00030808,-5.192e-05,0.0,0 STARLINK-3847,1 52333U 22045C   23227.09290134 -.00005192  00000-0 -30808-3 0  9994,2 52333  53.2162  98.1577 0001148  95.2186 264.8937 15.08873526 74082,6917.778,95.435,540.437,538.849,0.0
52333.0,STARLINK-3847,PAYLOAD,2023-08-15 14:56:53,15.08841154,0.0001219,53.2166,95.7768,90.5385,269.5747,9.9655e-05,1.299e-05,0.0,0 STARLINK-3847,1 52333U 22045C   23227.62283647  .00001299  00000-0  99655-4 0  9992,2 52333  53.2166  95.7768 0001219  90.5385 269.5747 15.08841154 74161,6917.877,95.437,540.585,538.899,0.0
52333.0,STARLINK-3847,PAYLOAD,2023-08-16 00:29:11,15.0884507,0.0001267,53.2162,93.9942,87.5528,272.5609,0.00017399,2.483e-05,0.0,0 STARLINK-3847,1 52333U 22045C   23228.02027144  .00002483  00000-0  17399-3 0  9995,2 52333  53.2162  93.9942 0001267  87.5528 272.5609 15.08845070 74228,6917.865,95.437,540.606,538.853,0.0
52333.0,STARLINK-3847,PAYLOAD,2023-08-17 20:59:59,15.08844447,0.0001606,53.2125,85.6664,97.0008,263.1167,7.406e-05,8.91e-06,0.0,0 STARLINK-3847,1 52333U 22045C   23229.87498975  .00000891  00000-0  74060-4 0  9993,2 52333  53.2125  85.6664 0001606  97.0008 263.1167 15.08844447 74505,6917.867,95.437,540.843,538.621,0.0
52333.0,STARLINK-3847,PAYLOAD,2023-08-18 20:50:47,15.08849306,0.0001531,53.2149,81.2069,93.3033,266.8134,-0.0001492,-2.662e-05,0.0,0 STARLINK-3847,1 52333U 22045C   23230.86860188 -.00002662  00000-0 -14920-3 0  9991,2 52333  53.2149  81.2069 0001531  93.3033 266.8134 15.08849306 74655,6917.852,95.437,540.776,538.658,0.0
52333.0,STARLINK-3847,PAYLOAD,2023-08-19 23:52:20,15.08838731,0.0001456,53.2136,76.1529,89.0171,271.0988,5.1743e-05,5.36e-06,0.0,0 STARLINK-3847,1 52333U 22045C   23231.99467802  .00000536  00000-0  51743-4 0  9993,2 52333  53.2136  76.1529 0001456  89.0171 271.0988 15.08838731 74820,6917.884,95.438,540.757,538.742,0.0
52333.0,STARLINK-3847,PAYLOAD,2023-08-21 06:04:39,15.08841163,0.0001153,53.217,70.501,84.0126,276.0998,8.0772e-05,9.98e-06,0.0,0 STARLINK-3847,1 52333U 22045C   23233.25323809  .00000998  00000-0  80772-4 0  9998,2 52333  53.2170  70.5010 0001153  84.0126 276.0998 15.08841163 75011,6917.877,95.437,540.539,538.944,0.0
52333.0,STARLINK-3847,PAYLOAD,2023-08-21 20:23:08,15.08836032,0.0001337,53.2178,67.8251,90.4557,269.6589,5.3798e-06,-2.02e-06,0.0,0 STARLINK-3847,1 52333U 22045C   23233.84940540 -.00000202  00000-0  53798-5 0  9998,2 52333  53.2178  67.8251 0001337  90.4557 269.6589 15.08836032 75101,6917.893,95.438,540.682,538.833,0.0
52333.0,STARLINK-3847,PAYLOAD,2023-08-22 21:49:18,15.08839309,0.0001254,53.2175,63.0689,86.8033,273.3102,-8.6197e-07,-3.02e-06,0.0,0 STARLINK-3847,1 52333U 22045C   23234.90924666 -.00000302  00000-0 -86197-6 0  9999,2 52333  53.2175  63.0689 0001254  86.8033 273.3102 15.08839309 75267,6917.883,95.438,540.615,538.88,0.0
52333.0,STARLINK-3847,PAYLOAD,2023-08-23 20:04:42,15.08843908,0.00013,53.2174,58.9056,79.0055,281.1084,0.00013846,1.917e-05,0.0,0 STARLINK-3847,1 52333U 22045C   23235.83660151  .00001917  00000-0  13846-3 0  9997,2 52333  53.2174  58.9056 0001300  79.0055 281.1084 15.08843908 75409,6917.868,95.437,540.633,538.834,0.0
52333.0,STARLINK-3847,PAYLOAD,2023-08-25 11:49:21,15.08842789,0.0001206,53.2173,51.4696,84.9742,275.1388,-1.7931e-05,-5.73e-06,0.0,0 STARLINK-3847,1 52333U 22045C   23237.49260531 -.00000573  00000-0 -17931-4 0  9998,2 52333  53.2173  51.4696 0001206  84.9742 275.1388 15.08842789 75652,6917.872,95.437,540.571,538.903,0.0
